start=new Date('2023-04-29T00:00:00.000Z').valueOf();
sats=[{"GP_ID":"230882120","MEAN_ANOMALY":"324.3078","TIME_SYSTEM":"UTC","APOAPSIS":"459.441","DECAY_DATE":null,"BSTAR":"0.00098080000000","SITE":"AFETR","OBJECT_ID":"2020-019AJ","TLE_LINE1":"1 45392U 20019AJ  23118.47543799  .00036379  00000-0  98080-3 0  9994","ARG_OF_PERICENTER":"35.8492","REF_FRAME":"TEME","TLE_LINE2":"2 45392  52.9801 116.1978 0008488  35.8492 324.3078 15.37454338172631","PERIAPSIS":"447.843","INCLINATION":"52.9801","CLASSIFICATION_TYPE":"U","MEAN_MOTION":"15.37454338","SEMIMAJOR_AXIS":"6831.777","ELEMENT_SET_NO":"999","REV_AT_EPOCH":"17263","EPHEMERIS_TYPE":"0","PERIOD":"93.661","NORAD_CAT_ID":"45392","OBJECT_TYPE":"PAYLOAD","EPOCH":"2023-04-28T11:24:37.842336","RCS_SIZE":"LARGE","MEAN_ELEMENT_THEORY":"SGP4","COUNTRY_CODE":"US","MEAN_MOTION_DDOT":"0.0000000000000","ECCENTRICITY":"0.00084880","RA_OF_ASC_NODE":"116.1978","CENTER_NAME":"EARTH","FILE":"3895770","MEAN_MOTION_DOT":"0.00036379","LAUNCH_DATE":"2020-03-18","OBJECT_NAME":"STARLINK-1290"},{"COUNTRY_CODE":"US","MEAN_MOTION_DDOT":"0.0000000000000","ECCENTRICITY":"0.00013870","RA_OF_ASC_NODE":"161.6269","CENTER_NAME":"EARTH","MEAN_MOTION_DOT":"0.00010161","FILE":"3895965","LAUNCH_DATE":"2020-03-18","OBJECT_NAME":"STARLINK-1291","ELEMENT_SET_NO":"999","REV_AT_EPOCH":"17213","EPHEMERIS_TYPE":"0","PERIOD":"95.591","NORAD_CAT_ID":"45393","OBJECT_TYPE":"PAYLOAD","EPOCH":"2023-04-28T20:06:53.649216","RCS_SIZE":"LARGE","MEAN_ELEMENT_THEORY":"SGP4","SITE":"AFETR","OBJECT_ID":"2020-019AK","TLE_LINE1":"1 45393U 20019AK  23118.83812094  .00010161  00000-0  69980-3 0  9990","ARG_OF_PERICENTER":"68.9345","TLE_LINE2":"2 45393  53.0507 161.6269 0001387  68.9345 291.1792 15.06413095172130","PERIAPSIS":"546.213","REF_FRAME":"TEME","INCLINATION":"53.0507","CLASSIFICATION_TYPE":"U","MEAN_MOTION":"15.06413095","SEMIMAJOR_AXIS":"6925.308","GP_ID":"230894806","MEAN_ANOMALY":"291.1792","TIME_SYSTEM":"UTC","APOAPSIS":"548.134","DECAY_DATE":null,"BSTAR":"0.00069980000000"},{"NORAD_CAT_ID":"45394","OBJECT_TYPE":"PAYLOAD","EPOCH":"2023-04-28T09:40:34.729536","RCS_SIZE":"LARGE","MEAN_ELEMENT_THEORY":"SGP4","ELEMENT_SET_NO":"999","REV_AT_EPOCH":"17204","EPHEMERIS_TYPE":"0","PERIOD":"95.590","RA_OF_ASC_NODE":"163.5756","CENTER_NAME":"EARTH","FILE":"3895770","MEAN_MOTION_DOT":"0.00015617","LAUNCH_DATE":"2020-03-18","OBJECT_NAME":"STARLINK-1292","COUNTRY_CODE":"US","MEAN_MOTION_DDOT":"0.0000000000000","ECCENTRICITY":"0.00014850","TIME_SYSTEM":"UTC","APOAPSIS":"548.160","DECAY_DATE":null,"BSTAR":"0.00106420000000","GP_ID":"230882621","MEAN_ANOMALY":"283.3406","REF_FRAME":"TEME","TLE_LINE2":"2 45394  53.0528 163.5756 0001485  76.7748 283.3406 15.06426652172047","PERIAPSIS":"546.103","INCLINATION":"53.0528","CLASSIFICATION_TYPE":"U","MEAN_MOTION":"15.06426652","SEMIMAJOR_AXIS":"6925.267","SITE":"AFETR","OBJECT_ID":"2020-019AL","ARG_OF_PERICENTER":"76.7748","TLE_LINE1":"1 45394U 20019AL  23118.40317974  .00015617  00000-0  10642-2 0  9992"},{"OBJECT_ID":"2020-019AM","ARG_OF_PERICENTER":"82.9512","TLE_LINE1":"1 45395U 20019AM  23118.83073997 -.00005169  00000-0 -32831-3 0  9992","SITE":"AFETR","MEAN_MOTION":"15.06400666","SEMIMAJOR_AXIS":"6925.347","INCLINATION":"53.0517","TLE_LINE2":"2 45395  53.0517 161.6610 0001968  82.9512 277.1700 15.06400666172133","REF_FRAME":"TEME","PERIAPSIS":"545.849","CLASSIFICATION_TYPE":"U","MEAN_ANOMALY":"277.1700","GP_ID":"230894829","BSTAR":"-0.00032831000000","TIME_SYSTEM":"UTC","APOAPSIS":"548.574","DECAY_DATE":null,"MEAN_MOTION_DDOT":"0.0000000000000","ECCENTRICITY":"0.00019680","COUNTRY_CODE":"US","OBJECT_NAME":"STARLINK-1297","LAUNCH_DATE":"2020-03-18","CENTER_NAME":"EARTH","RA_OF_ASC_NODE":"161.6610","FILE":"3895972","MEAN_MOTION_DOT":"-0.00005169","PERIOD":"95.592","REV_AT_EPOCH":"17213","ELEMENT_SET_NO":"999","EPHEMERIS_TYPE":"0","RCS_SIZE":"LARGE","MEAN_ELEMENT_THEORY":"SGP4","NORAD_CAT_ID":"45395","EPOCH":"2023-04-28T19:56:15.933408","OBJECT_TYPE":"PAYLOAD"},{"GP_ID":"230881621","MEAN_ANOMALY":"267.3492","DECAY_DATE":null,"APOAPSIS":"548.356","TIME_SYSTEM":"UTC","BSTAR":"0.00013206000000","SITE":"AFETR","TLE_LINE1":"1 45396U 20019AN  23118.41424725  .00001686  00000-0  13206-3 0  9999","ARG_OF_PERICENTER":"92.7681","OBJECT_ID":"2020-019AN","CLASSIFICATION_TYPE":"U","INCLINATION":"53.0531","TLE_LINE2":"2 45396  53.0531 163.5323 0001606  92.7681 267.3492 15.06390067172027","PERIAPSIS":"546.132","REF_FRAME":"TEME","SEMIMAJOR_AXIS":"6925.379","MEAN_MOTION":"15.06390067","EPHEMERIS_TYPE":"0","REV_AT_EPOCH":"17202","ELEMENT_SET_NO":"999","PERIOD":"95.593","EPOCH":"2023-04-28T09:56:30.962400","OBJECT_TYPE":"PAYLOAD","NORAD_CAT_ID":"45396","MEAN_ELEMENT_THEORY":"SGP4","RCS_SIZE":"LARGE","COUNTRY_CODE":"US","ECCENTRICITY":"0.00016060","MEAN_MOTION_DDOT":"0.0000000000000","FILE":"3895770","MEAN_MOTION_DOT":"0.00001686","CENTER_NAME":"EARTH","RA_OF_ASC_NODE":"163.5323","OBJECT_NAME":"STARLINK-1303","LAUNCH_DATE":"2020-03-18"},{"REV_AT_EPOCH":"17215","ELEMENT_SET_NO":"999","EPHEMERIS_TYPE":"0","PERIOD":"95.593","NORAD_CAT_ID":"45397","EPOCH":"2023-04-28T13:23:31.056576","OBJECT_TYPE":"PAYLOAD","RCS_SIZE":"LARGE","MEAN_ELEMENT_THEORY":"SGP4","COUNTRY_CODE":"US","MEAN_MOTION_DDOT":"0.0000000000000","ECCENTRICITY":"0.00015650","CENTER_NAME":"EARTH","RA_OF_ASC_NODE":"162.8866","MEAN_MOTION_DOT":"0.00002192","FILE":"3895770","OBJECT_NAME":"STARLINK-1307","LAUNCH_DATE":"2020-03-18","GP_ID":"230881871","MEAN_ANOMALY":"281.9589","TIME_SYSTEM":"UTC","DECAY_DATE":null,"APOAPSIS":"548.346","BSTAR":"0.00016608000000","SITE":"AFETR","OBJECT_ID":"2020-019AP","TLE_LINE1":"1 45397U 20019AP  23118.55799834  .00002192  00000-0  16608-3 0  9993","ARG_OF_PERICENTER":"78.1575","INCLINATION":"53.0534","TLE_LINE2":"2 45397  53.0534 162.8866 0001565  78.1575 281.9589 15.06384211172156","PERIAPSIS":"546.178","REF_FRAME":"TEME","CLASSIFICATION_TYPE":"U","MEAN_MOTION":"15.06384211","SEMIMAJOR_AXIS":"6925.397"},{"OBJECT_NAME":"STARLINK-1312","LAUNCH_DATE":"2020-03-18","CENTER_NAME":"EARTH","RA_OF_ASC_NODE":"163.5095","FILE":"3895770","MEAN_MOTION_DOT":"0.00004602","MEAN_MOTION_DDOT":"0.0000000000000","ECCENTRICITY":"0.00014710","COUNTRY_CODE":"US","RCS_SIZE":"LARGE","MEAN_ELEMENT_THEORY":"SGP4","NORAD_CAT_ID":"45398","EPOCH":"2023-04-28T10:01:49.754208","OBJECT_TYPE":"PAYLOAD","PERIOD":"95.592","REV_AT_EPOCH":"17206","ELEMENT_SET_NO":"999","EPHEMERIS_TYPE":"0","MEAN_MOTION":"15.06397937","SEMIMAJOR_AXIS":"6925.355","INCLINATION":"53.0527","TLE_LINE2":"2 45398  53.0527 163.5095 0001471  80.1022 280.0133 15.06397937172061","PERIAPSIS":"546.201","REF_FRAME":"TEME","CLASSIFICATION_TYPE":"U","OBJECT_ID":"2020-019AQ","TLE_LINE1":"1 45398U 20019AQ  23118.41793697  .00004602  00000-0  32764-3 0  9999","ARG_OF_PERICENTER":"80.1022","SITE":"AFETR","BSTAR":"0.00032764000000","TIME_SYSTEM":"UTC","DECAY_DATE":null,"APOAPSIS":"548.239","MEAN_ANOMALY":"280.0133","GP_ID":"230883121"},{"COUNTRY_CODE":"US","MEAN_MOTION_DDOT":"0.0000000000000","ECCENTRICITY":"0.00015620","RA_OF_ASC_NODE":"151.8412","CENTER_NAME":"EARTH","FILE":"3895963","MEAN_MOTION_DOT":"0.00009909","LAUNCH_DATE":"2020-03-18","OBJECT_NAME":"STARLINK-1255","ELEMENT_SET_NO":"999","REV_AT_EPOCH":"17231","EPHEMERIS_TYPE":"0","PERIOD":"95.591","NORAD_CAT_ID":"45399","OBJECT_TYPE":"PAYLOAD","EPOCH":"2023-04-28T18:59:13.297632","RCS_SIZE":"LARGE","MEAN_ELEMENT_THEORY":"SGP4","SITE":"AFETR","OBJECT_ID":"2020-019AR","ARG_OF_PERICENTER":"87.5493","TLE_LINE1":"1 45399U 20019AR  23118.79112613  .00009909  00000-0  68276-3 0  9996","TLE_LINE2":"2 45399  53.0531 151.8412 0001562  87.5493 272.5674 15.06424417172312","REF_FRAME":"TEME","PERIAPSIS":"546.057","INCLINATION":"53.0531","CLASSIFICATION_TYPE":"U","MEAN_MOTION":"15.06424417","SEMIMAJOR_AXIS":"6925.274","GP_ID":"230894281","MEAN_ANOMALY":"272.5674","TIME_SYSTEM":"UTC","DECAY_DATE":null,"APOAPSIS":"548.220","BSTAR":"0.00068276000000"},{"ELEMENT_SET_NO":"999","REV_AT_EPOCH":"17225","EPHEMERIS_TYPE":"0","PERIOD":"95.336","NORAD_CAT_ID":"45400","OBJECT_TYPE":"PAYLOAD","EPOCH":"2023-04-28T18:55:31.444896","RCS_SIZE":"LARGE","MEAN_ELEMENT_THEORY":"SGP4","COUNTRY_CODE":"US","MEAN_MOTION_DDOT":"0.0000000000000","ECCENTRICITY":"0.00049510","RA_OF_ASC_NODE":"150.9966","CENTER_NAME":"EARTH","FILE":"3895963","MEAN_MOTION_DOT":"0.00012626","LAUNCH_DATE":"2020-03-18","OBJECT_NAME":"STARLINK-1213","GP_ID":"230894779","MEAN_ANOMALY":"332.6738","TIME_SYSTEM":"UTC","DECAY_DATE":null,"APOAPSIS":"538.260","BSTAR":"0.00077506000000","SITE":"AFETR","OBJECT_ID":"2020-019AS","ARG_OF_PERICENTER":"27.4513","TLE_LINE1":"1 45400U 20019AS  23118.78855839  .00012626  00000-0  77506-3 0  9998","TLE_LINE2":"2 45400  53.0548 150.9966 0004951  27.4513 332.6738 15.10447012172251","REF_FRAME":"TEME","PERIAPSIS":"531.415","INCLINATION":"53.0548","CLASSIFICATION_TYPE":"U","MEAN_MOTION":"15.10447012","SEMIMAJOR_AXIS":"6912.973"},{"CLASSIFICATION_TYPE":"U","REF_FRAME":"TEME","TLE_LINE2":"2 45401  53.0517 151.7889 0001532  74.3830 285.7328 15.06421091172310","PERIAPSIS":"546.088","INCLINATION":"53.0517","SEMIMAJOR_AXIS":"6925.284","MEAN_MOTION":"15.06421091","SITE":"AFETR","TLE_LINE1":"1 45401U 20019AT  23118.80217985  .00010136  00000-0  69798-3 0  9994","ARG_OF_PERICENTER":"74.3830","OBJECT_ID":"2020-019AT","DECAY_DATE":null,"APOAPSIS":"548.210","TIME_SYSTEM":"UTC","BSTAR":"0.00069798000000","GP_ID":"230894285","MEAN_ANOMALY":"285.7328","MEAN_MOTION_DOT":"0.00010136","FILE":"3895963","RA_OF_ASC_NODE":"151.7889","CENTER_NAME":"EARTH","LAUNCH_DATE":"2020-03-18","OBJECT_NAME":"STARLINK-1256","COUNTRY_CODE":"US","ECCENTRICITY":"0.00015320","MEAN_MOTION_DDOT":"0.0000000000000","OBJECT_TYPE":"PAYLOAD","EPOCH":"2023-04-28T19:15:08.339040","NORAD_CAT_ID":"45401","MEAN_ELEMENT_THEORY":"SGP4","RCS_SIZE":"LARGE","EPHEMERIS_TYPE":"0","ELEMENT_SET_NO":"999","REV_AT_EPOCH":"17231","PERIOD":"95.591"}];
